GLOBALSTAR M001 [-]     
1 25162U 98008A   23299.43455234 -.00000064  00000+0  25383-3 0  9990
2 25162  52.0029 278.7884 0001956  63.5182 104.3551 12.38169247169419
GLOBALSTAR M004 [-]     
1 25163U 98008B   23299.62506194 -.00000097  00000+0  37531-4 0  9999
2 25163  51.9987  83.1937 0003496  52.2158  29.2056 12.63340747185908
GLOBALSTAR M002 [-]     
1 25164U 98008C   23299.34208043 -.00000050  00000+0  52496-3 0  9996
2 25164  52.0017 304.1991 0001421 115.1335 244.9632 11.61496761114366
GLOBALSTAR M003 [-]     
1 25165U 98008D   23299.58347029  .00000033  00000+0  13089-2 0  9995
2 25165  51.9788  29.2938 0008327 164.0331 301.6370 12.11947845160515
GLOBALSTAR M014 [-]     
1 25306U 98023A   23299.21903538 -.00000088  00000+0 -19992-3 0  9994
2 25306  51.9830 240.3409 0001231   9.2533 131.6521 11.65461294121210
GLOBALSTAR M006 [-]     
1 25307U 98023B   23299.32247149 -.00000047  00000+0  58190-3 0  9993
2 25307  51.9928 270.1337 0003742 103.7338  41.0918 11.58155587147323
GLOBALSTAR M015 [-]     
1 25308U 98023C   23299.51265323  .00000016  00000+0  20507-2 0  9994
2 25308  51.9844 340.6569 0012635  90.2873  53.4846 11.48855611125525
GLOBALSTAR M008 [-]     
1 25309U 98023D   23298.27266225 -.00000078  00000+0  14280-3 0  9990
2 25309  51.9943 140.1971 0002623  11.0385 161.0821 12.36030185163532
